NAYIF-1 (EO-88)         
1 42017U 17008BX  20064.65655122  .00001315  00000-0  53641-4 0  9997
2 42017  97.3718 133.7078 0005541 347.8421  12.2683 15.26192107169567
MAX VALIER SAT          
1 42778U 17036P   20064.38355682  .00000769  00000-0  36146-4 0  9993
2 42778  97.3199 120.8550 0013138  39.0042 321.2140 15.22429323149744
RADFXSAT (FOX-1B)       
1 43017U 17073E   20064.44914798  .00000742  00000-0  62680-4 0  9990
2 43017  97.7262 340.7212 0258222  32.7270 328.9645 14.78818970123647
FOX-1D (AO-92)          
1 43137U 18004AC  20064.62859260  .00000873  00000-0  39088-4 0  9991
2 43137  97.4567 136.4588 0010695  68.5905 291.6472 15.23916383119077
ES'HAIL 2               
1 43700U 18090A   20064.55327094  .00000141  00000-0  00000-0 0  9995
2 43700   0.0138 134.8223 0002247 231.8705  21.0290  1.00272060  4659
FOX-1CLIFF (AO-95)      
1 43770U 18099N   20064.15586256  .00000544  00000-0  54996-4 0  9998
2 43770  97.7165 137.3251 0014605 182.6282 177.4864 14.94921115 68182
ITASAT 1                
1 43786U 18099AE  20064.44465837 -.00000219  00000-0 -14613-4 0  9991
2 43786  97.7179 137.9534 0015326 176.1384 183.9958 14.95269591 68243
JY1SAT (JO-97)          
1 43803U 18099AX  20064.67185049  .00000527  00000-0  52835-4 0  9998
2 43803  97.7136 138.0221 0015471 175.7747 184.3608 14.95430132 68271
PSAT2 (NO-104)          
1 44354U 19036R   20064.17607391  .00006469  00000-0  93283-4 0  9999
2 44354  28.5349 351.0267 0372627 268.2630  87.5254 15.01334537 37969
BRICSAT2 (NO-103)       
1 44355U 19036S   20064.10394464  .00015084  00000-0  21871-3 0  9993
2 44355  28.5348 347.5249 0358704 273.9729  81.9939 15.04808179 38006
JAISAT-1                
1 44419U 19038F   20064.70925128  .00000822  00000-0  50552-4 0  9992
2 44419  97.5257  27.6299 0022936 128.8619 231.4663 15.12598494 36766
DUCHIFAT-3              
1 44854U 19089C   20064.85048111  .00000343  00000-0  34250-4 0  9990
2 44854  36.9696 356.4982 0009441 296.4765  63.5027 14.98985188 12591
HUSKYSAT-1              
1 45119U 19071J   20064.73007907  .00001100  00000-0  45369-4 0  9996
2 45119  51.6440 149.2209 0012703  38.7677 321.4214 15.33186283  5057
